{
  "type": "FeatureCollection",
  "metadata": {
    "model_source": "unet_resnet34_sos",
    "region": "Gulf of Mexico (Green Canyon / Mississippi Canyon offshore)",
    "description": "Satellite SAR segmentation detection"
  },
  "features": [
    {
      "type": "Feature",
      "geometry": {
        "type": "Polygon",
        "coordinates": [
          [
            [-90.408203, 27.646484],
            [-90.414062, 27.646484],
            [-90.416016, 27.644531],
            [-90.417969, 27.644531],
            [-90.423828, 27.638672],
            [-90.425781, 27.638672],
            [-90.425781, 27.636719],
            [-90.429688, 27.632812],
            [-90.429688, 27.630859],
            [-90.431641, 27.628906],
            [-90.431641, 27.619141],
            [-90.429688, 27.617188],
            [-90.425781, 27.617188],
            [-90.419922, 27.623047],
            [-90.417969, 27.623047],
            [-90.416016, 27.625],
            [-90.414062, 27.625],
            [-90.414062, 27.626953],
            [-90.412109, 27.628906],
            [-90.412109, 27.630859],
            [-90.410156, 27.632812],
            [-90.410156, 27.634766],
            [-90.40625, 27.638672],
            [-90.40625, 27.644531],
            [-90.408203, 27.646484]
          ]
        ]
      },
      "properties": {
        "spill_id": "spill_0",
        "detected_at": "2026-09-26T09:44:47.147997+00:00",
        "coverage_pct": 84.91,
        "source": "unet_resnet34_sos",
        "oil_type": "medium_crude",
        "max_backtrack_hours": 24
      }
    },
    {
      "type": "Feature",
      "geometry": {
        "type": "Polygon",
        "coordinates": [
          [
            [-90.5, 27.996094],
            [-90.5, 27.845703],
            [-90.474609, 27.826172],
            [-90.476562, 27.796875],
            [-90.462891, 27.794922],
            [-90.445312, 27.814453],
            [-90.433594, 27.800781],
            [-90.408203, 27.802734],
            [-90.394531, 27.794922],
            [-90.384766, 27.779297],
            [-90.388672, 27.759766],
            [-90.414062, 27.757812],
            [-90.425781, 27.738281],
            [-90.480469, 27.714844],
            [-90.480469, 27.695312],
            [-90.466797, 27.6875],
            [-90.464844, 27.703125],
            [-90.449219, 27.71875],
            [-90.435547, 27.71875],
            [-90.427734, 27.705078],
            [-90.390625, 27.689453],
            [-90.375, 27.667969],
            [-90.380859, 27.65625],
            [-90.394531, 27.650391],
            [-90.394531, 27.642578],
            [-90.378906, 27.644531],
            [-90.367188, 27.632812],
            [-90.335938, 27.630859],
            [-90.322266, 27.615234],
            [-90.333984, 27.595703],
            [-90.369141, 27.582031],
            [-90.382812, 27.5625],
            [-90.390625, 27.53125],
            [-90.365234, 27.537109],
            [-90.353516, 27.525391],
            [-90.347656, 27.501953],
            [-90.001953, 27.501953],
            [-90.001953, 28.0],
            [-90.382812, 28.0],
            [-90.392578, 27.984375],
            [-90.416016, 28.0],
            [-90.5, 27.996094]
          ]
        ]
      },
      "properties": {
        "spill_id": "spill_1",
        "detected_at": "2026-09-26T09:44:47.148195+00:00",
        "coverage_pct": 84.91,
        "source": "unet_resnet34_sos",
        "oil_type": "medium_crude",
        "max_backtrack_hours": 24
      }
    }
  ]
}
