{
  "type": "Feature",
  "geometry": {
    "type": "Polygon",
    "coordinates": [
      [
        [42.7360, 13.7420],
        [42.7380, 13.7435],
        [42.7950, 13.6820],
        [42.8620, 13.5950],
        [42.9450, 13.5020],
        [43.0380, 13.4110],
        [43.1450, 13.3150],
        [43.1600, 13.3050],
        [43.1520, 13.2920],
        [43.1320, 13.2980],
        [43.0210, 13.3980],
        [42.9280, 13.4890],
        [42.8460, 13.5820],
        [42.7820, 13.6700],
        [42.7345, 13.7405],
        [42.7360, 13.7420]
      ]
    ]
  },
  "properties": {
    "incident_name": "MV Rubymar Oil Spill",
    "detection_timestamp": "2024-03-01T03:30:00Z",
    "sensor": "Sentinel-1 SAR",
    "oil_type": "heavy_fuel",
    "max_backtrack_hours": 72
  }
}
